ADRAS-J                 
1 58992U 24034A   24219.19857720  .00005145  00000+0  47337-3 0  9994
2 58992  98.2149 194.5154 0042092 243.0762 116.6154 14.94573070 25335
